stk.v.4.3

BEGIN Ephemeris

NumberOfEphemerisPoints   1446

ScenarioEpoch           22 Feb 2005 21:15:59.638752
InterpolationMethod     Lagrange
InterpolationOrder      7
CentralBody             Earth
CoordinateSystem        J2000

EphemerisTimePosVel

19440.0 -2674233.6792507973 25466951.9904644 6230428.29664873 -2361.910911212232 517.7221713626758 -3065.143138387764 
19500.0 -2813675.350602684 25496571.47461516 6049100.755655057 -2358.380671957379 484.93855348720547 -3073.042268460746 
19560.0 -2952912.81447658 25524254.90872062 5867300.818892982 -2354.67129670506 452.11923847830224 -3080.707535357972 
19620.0 -3091935.626521172 25550000.01887869 5685042.0464294115 -2350.783069888779 419.26674041319376 -3088.138352282644 
19680.0 -3230733.3558937972 25573804.6724968 5502338.034741909 -2346.71628964441 386.3835758995267 -3095.3341504045243 
19740.0 -3369295.585993995 25595666.87850114 5319202.415785636 -2342.471267787139 353.4722638823362 -3102.294378903291 
19800.0 -3507611.915196716 25615584.7875373 5135648.856057403 -2338.048329787361 320.5353254508845 -3109.018505010511 
19860.0 -3645671.957585225 25633556.69216203 4951691.055656677 -2333.447814745521 287.5752836453405 -3115.5060140502223 
19920.0 -3783465.3436837597 25649581.0270263 4767342.747343542 -2328.670075365912 254.5946632633032 -3121.756409478119 
19980.0 -3920981.7211898337 25663656.36904944 4582617.695593687 -2323.7154779294297 221.5959906662066 -3127.769212919353 
20040.0 -4058210.755706178 25675781.43758456 4397529.695650448 -2318.584402265281 188.58179358559602 -3133.543964204929 
20100.0 -4195142.131472143 25685955.094575003 4212092.572574164 -2313.277241721664 155.554600929352 -3139.080221406704 
20160.0 -4331765.552094844 25694176.34470193 4026320.180288385 -2307.7944031353923 122.516942587763 -3144.37756087098 
20220.0 -4468070.7412794875 25700444.335522983 3840226.400623722 -2302.136306800511 89.47134923962463 -3149.4355772507 
20280.0 -4604047.443559537 25704758.35760194 3653825.142358486 -2296.303386435854 56.420352158190525 -3154.253883536224 
20340.0 -4739685.425025983 25707117.844629463 3467130.3402569937 -2290.296089151589 23.36648301715605 -3158.832111084707 
20400.0 -4874974.474056186 25707522.37353479 3280155.954104994 -2284.114875414734 -9.68772630340986 -3163.169909648064 
20460.0 -5009904.402042019 25705971.66458844 3092915.96774254 -2277.760219013642 -42.73974391114499 -3167.2669473995143 
20520.0 -5144465.044117262 25702465.58149574 2905424.388094336 -2271.232607021471 -75.78703809544174 -3171.122910958717 
20580.0 -5278646.25988426 25697004.131481413 2717695.2441975684 -2264.53253975864 -108.8270775214786 -3174.73750541549 
20640.0 -5412437.934139927 25689587.465364877 2529742.58622711 -2257.660530754262 -141.8573314242382 -3178.110454352104 
20700.0 -5545829.977600793 25680215.87762665 2341580.484518459 -2250.617106706565 -174.8752698024405 -3181.241499864162 
20760.0 -5678812.327627229 25668889.80646526 2153223.028588236 -2243.402807442319 -207.8783636124146 -3184.130402580056 
20820.0 -5811374.9489469025 25655609.83384528 1964684.326152183 -2236.01818587523 -240.86408496192098 -3186.776941679001 
20880.0 -5943507.834377038 25640376.68553591 1775978.502141197 -2228.463807963371 -273.82990730380817 -3189.1809149076444 
20940.0 -6075201.005545956 25623191.23114043 1587119.6977147849 -2220.7402526655746 -306.7733056296222 -3191.342138595247 
21000.0 -6206444.513613487 25604054.484116327 1398122.069272418 -2212.8481118968552 -339.6917566630673 -3193.260447667448 
21060.0 -6337228.439990232 25582967.60178619 1208999.78746289 -2204.7879904828333 -372.58273905329156 -3194.93569565859 
21120.0 -6467542.897055913 25559931.8853392 1019767.0361913061 -2196.560506113175 -405.4437335680698 -3196.367754722626 
21180.0 -6597378.028876474 25534948.77982331 830438.0116241009 -2188.166289294034 -438.2722232867877 -3197.5565156425932 
21240.0 -6726724.011919876 25508019.8741281 641026.9211922969 -2179.605983299542 -471.0656937932034 -3198.50188783866 
21300.0 -6855571.055770912 25479146.900958158 451547.9825923667 -2170.8802441222833 -503.8216333680805 -3199.2037993747463 
21360.0 -6983909.403844598 25448331.73679708 262015.4227854473 -2161.989740422835 -536.5375331815552 -3199.662196963708 
21420.0 -7111729.334098184 25415576.40186203 72443.47699475657 -2152.935153478317 -569.2108874852657 -3199.8770459710972 
21480.0 -7239021.15974196 25380883.06004877 -117153.6122990055 -2143.717177129982 -601.8391938042673 -3199.84833041749 
21540.0 -7365775.229948666 25344254.01886736 -306761.596364011 -2134.336517729844 -634.4199531286861 -3199.576052979389 
21600.0 -7491981.930561232 25305691.72936811 -496366.22122510563 -2124.793894086357 -666.9506701050567 -3199.060234988688 
21660.0 -7617631.684799217 25265198.786058232 -685953.228673463 -2115.0900374091443 -699.428853227394 -3198.300916430715 
21720.0 -7742714.953963778 25222777.92680871 -875508.3572780077 -2105.225691252759 -731.8520150279986 -3197.298155940842 
21780.0 -7867222.238140821 25178432.03275176 -1065017.343397982 -2095.2016114595363 -764.2176722678664 -3196.052030799672 
21840.0 -7991144.07690276 25132164.12816862 -1254465.922197393 -2085.018566101473 -796.5233461268326 -3194.562636926789 
21900.0 -8114471.0500084525 25083977.380367693 -1443839.828660663 -2074.6773354212 -828.7665623933251 -3192.830088873091 
21960.0 -8237193.77810149 25033875.09955307 -1633124.798609762 -2064.178711772015 -860.9448516537703 -3190.854519811686 
22020.0 -8359302.923406729 24981860.73868337 -1822306.569722708 -2053.523499556984 -893.0557494816267 -3188.636081527377 
22080.0 -8480789.190425022 24927937.893320918 -2011370.882553321 -2042.7125151671398 -925.0967966260231 -3186.174944404704 
22140.0 -8601643.326626042 24872110.301471192 -2200303.481552117 -2031.7465869187479 -957.0655391999787 -3183.471297414581 
22200.0 -8721856.123139288 24814381.84341247 -2389090.116088551 -2020.6265549896818 -988.9595288682253 -3180.525348099499 
22260.0 -8841418.415443072 24754756.54151592 -2577716.541474156 -2009.353271354878 -1020.7763230345679 -3177.337322557312 
22320.0 -8960321.084051596 24693238.56005568 -2766168.5199869773 -1997.927599720899 -1052.513485028831 -3173.907465423608 
22380.0 -9078555.055199943 24629832.20500933 -2954431.8218968203 -1986.350415459596 -1084.16858429331 -3170.236039852651 
22440.0 -9196111.301526895 24564541.92384851 -3142492.226491399 -1974.622605540901 -1115.7391965687411 -3166.323327496924 
22500.0 -9312980.842755845 24497372.30531963 -3330335.523103635 -1962.745068464705 -1147.2229040798281 -3162.169628485241 
22560.0 -9429154.746373381 24428328.079214852 -3517947.512139614 -1950.718714191879 -1178.6172957202218 -3157.775261399457 
22620.0 -9544624.128305586 24357414.11613315 -3705314.006107154 -1938.5444640744201 -1209.919967236978 -3153.140563249764 
22680.0 -9659380.153592123 24284635.42723154 -3892420.830645242 -1926.22325078473 -1241.128521414485 -3148.265889448584 
22740.0 -9773414.037058167 24209997.16396632 -4079253.8255543257 -1913.7560182440102 -1272.240568257895 -3143.151613783044 
22800.0 -9886717.043983642 24133504.61782451 -4265798.845826698 -1901.143721549839 -1303.253725175904 -3137.7981283860577 
22860.0 -9999280.49077031 24055163.22004529 -4452041.76267784 -1888.387326902861 -1334.165617163037 -3132.205843706009 
22920.0 -10111095.74560621 23974978.54133158 -4637968.464577947 -1875.48781153266 -1364.97387698129 -3126.375188475024 
22980.0 -10222154.2291277 23892956.29155157 -4823564.858283991 -1862.446163622772 -1395.676145341197 -3120.306609675857 
23040.0 -10332447.415078871 23809102.31943031 -5008816.869872107 -1849.263382234871 -1426.270071082282 -3114.000572507382 
23100.0 -10441966.83096836 23723422.61223138 -5193710.445770218 -1835.940477232137 -1456.753311352861 -3107.4575603486874 
23160.0 -10550704.0587235 23635923.2954285 -5378231.553790865 -1822.478469201781 -1487.123531789223 -3100.678074721788 
23220.0 -10658650.73534171 23546610.632367108 -5562366.184164168 -1808.878389376778 -1517.378406694132 -3093.662635252958 
23280.0 -10765798.55353917 23455491.023916002 -5746100.350570944 -1795.141279556776 -1547.5156192146799 -3086.411779632668 
23340.0 -10872139.262396641 23362571.00810896 -5929420.091175665 -1781.268192028205 -1577.532861519426 -3078.9260635741603 
23400.0 -10977664.668002501 23267857.25977609 -6112311.469659667 -1767.260189483582 -1607.42783497489 -3071.2060607706308 
23460.0 -11082366.63409263 23171356.59016553 -6294760.576253788 -1753.118344940048 -1637.198250321258 -3063.252362851069 
23520.0 -11186237.08268768 23073075.94655465 -6476753.528771368 -1738.843741657079 -1666.841827847453 -3055.0655793346828 
23580.0 -11289267.99472699 22973022.41185155 -6658276.473640448 -1724.43747305347 -1696.356297565386 -3046.646337584019 
23640.0 -11391451.410699619 22871203.20418618 -6839315.586936097 -1709.900642623498 -1725.7393993835199 -3037.9952827566663 
23700.0 -11492779.431272171 22767625.67649163 -7019857.075412038 -1695.234363852353 -1754.988883279629 -3029.11307775564 
23760.0 -11593244.21791346 22662297.31607512 -7199887.177531975 -1680.439760130798 -1784.102509472802 -3020.000403178401 
23820.0 -11692837.99351599 22555225.74417904 -7379392.164500333 -1665.517964669076 -1813.0780485946461 -3010.657957264527 
23880.0 -11791553.043014081 22446418.71553173 -7558358.341292409 -1650.470120410072 -1841.913281859695 -3001.086455842032 
23940.0 -11889381.71399872 22335884.11788829 -7736772.0476839505 -1635.2973799417289 -1870.606001235013 -2991.286632272355 
24000.0 -11986316.41732897 22223629.971561212 -7914619.6592797255 -1620.000905408754 -1899.154009608933 -2981.2592373940192 
24060.0 -12082349.62773995 22109664.428940892 -8091887.588541554 -1604.5818684235771 -1927.555120958989 -2971.005039464942 
24120.0 -12177473.884447431 21993995.774005923 -8268562.285815451 -1589.041449976585 -1955.807160519003 -2960.524824103425 
